NORAD_CAT_ID,OBJECT_NAME,OBJECT_TYPE,EPOCH,MEAN_MOTION,ECCENTRICITY,INCLINATION,RA_OF_ASC_NODE,ARG_OF_PERICENTER,MEAN_ANOMALY,BSTAR,MEAN_MOTION_DOT,MEAN_MOTION_DDOT,TLE_LINE0,TLE_LINE1,TLE_LINE2,SEMIMAJOR_AXIS,PERIOD,APOGEE,PERIGEE,DECAYED
51873.0,STARLINK-3582,PAYLOAD,2023-12-27 10:38:34,15.08851657,0.0001483,53.2192,15.0373,96.1408,263.9753,6.5044e-05,7.48e-06,0.0,0 STARLINK-3582,1 51873U 22022X   23361.44344936  .00000748  00000-0  65044-4 0  9996,2 51873  53.2192  15.0373 0001483  96.1408 263.9753 15.08851657101857,6917.845,95.437,540.736,538.684,0.0
51873.0,STARLINK-3582,PAYLOAD,2023-12-28 10:29:21,15.08838494,0.0001833,53.2207,10.5765,112.6805,247.4381,2.3069e-05,7.9e-07,0.0,0 STARLINK-3582,1 51873U 22022X   23362.43705917  .00000079  00000-0  23069-4 0  9994,2 51873  53.2207  10.5765 0001833 112.6805 247.4381 15.08838494102009,6917.885,95.438,541.018,538.482,0.0
51873.0,STARLINK-3582,PAYLOAD,2023-12-29 10:20:08,15.08845507,0.0001708,53.2193,6.1193,108.2524,251.8654,5.1445e-06,-2.06e-06,0.0,0 STARLINK-3582,1 51873U 22022X   23363.43065682 -.00000206  00000-0  51445-5 0  9996,2 51873  53.2193   6.1193 0001708 108.2524 251.8654 15.08845507102150,6917.864,95.437,540.91,538.547,0.0
51873.0,STARLINK-3582,PAYLOAD,2023-12-30 03:49:23,15.08840585,0.0001546,53.2181,2.848,106.8522,253.264,3.7541e-05,3.1e-06,0.0,0 STARLINK-3582,1 51873U 22022X   23364.15929965  .00000310  00000-0  37541-4 0  9994,2 51873  53.2181   2.8480 0001546 106.8522 253.2640 15.08840585102265,6917.879,95.438,540.813,538.674,0.0
51873.0,STARLINK-3582,PAYLOAD,2023-12-30 05:24:46,15.08840313,0.0001556,53.2178,2.5509,104.2327,255.8839,7.6954e-05,9.37e-06,0.0,0 STARLINK-3582,1 51873U 22022X   23364.22553911  .00000937  00000-0  76954-4 0  9992,2 51873  53.2178   2.5509 0001556 104.2327 255.8839 15.08840313102274,6917.879,95.438,540.821,538.668,0.0
51873.0,STARLINK-3582,PAYLOAD,2023-12-31 06:50:57,15.08839112,0.0001574,53.2173,357.7926,99.8617,260.2553,4.5711e-05,4.4e-06,0.0,0 STARLINK-3582,1 51873U 22022X   23365.28538289  .00000440  00000-0  45711-4 0  9996,2 51873  53.2173 357.7926 0001574  99.8617 260.2553 15.08839112102434,6917.883,95.438,540.837,538.659,0.0
51873.0,STARLINK-3582,PAYLOAD,2024-01-01 03:30:58,15.08835224,0.0001498,53.2177,353.9288,96.9807,263.1355,1.1032e-05,-1.12e-06,0.0,0 STARLINK-3582,1 51873U 22022X   24001.14650857 -.00000112  00000-0  11032-4 0  9991,2 51873  53.2177 353.9288 0001498  96.9807 263.1355 15.08835224102567,6917.895,95.438,540.796,538.724,0.0
51873.0,STARLINK-3582,PAYLOAD,2024-01-01 08:17:07,15.08837106,0.0001563,53.2181,353.0377,108.9092,251.2069,7.7361e-05,9.43e-06,0.0,0 STARLINK-3582,1 51873U 22022X   24001.34522595  .00000943  00000-0  77361-4 0  9998,2 51873  53.2181 353.0377 0001563 108.9092 251.2069 15.08837106102599,6917.889,95.438,540.836,538.673,0.0
51873.0,STARLINK-3582,PAYLOAD,2024-01-02 04:57:07,15.08842915,0.0001566,53.218,349.1735,106.8731,253.2433,0.00012673,1.73e-05,0.0,0 STARLINK-3582,1 51873U 22022X   24002.20634231  .00001730  00000-0  12673-3 0  9994,2 51873  53.2180 349.1735 0001566 106.8731 253.2433 15.08842915102728,6917.871,95.437,540.82,538.653,0.0
51873.0,STARLINK-3582,PAYLOAD,2024-01-02 06:32:30,15.0884445,0.0001529,53.2182,348.8754,105.2071,254.909,0.00014085,1.955e-05,0.0,0 STARLINK-3582,1 51873U 22022X   24002.27258100  .00001955  00000-0  14085-3 0  9996,2 51873  53.2182 348.8754 0001529 105.2071 254.9090 15.08844450102730,6917.867,95.437,540.79,538.674,0.0
51873.0,STARLINK-3582,PAYLOAD,2024-01-03 03:12:32,15.08836149,0.0001579,53.218,345.0138,78.077,282.0399,4.5422e-05,4.35e-06,0.0,0 STARLINK-3582,1 51873U 22022X   24003.13371146  .00000435  00000-0  45422-4 0  9990,2 51873  53.2180 345.0138 0001579  78.0770 282.0399 15.08836149102865,6917.892,95.438,540.849,538.665,0.0
51873.0,STARLINK-3582,PAYLOAD,2024-01-03 06:23:18,15.08838355,0.0001532,53.2181,344.4201,107.9932,252.1227,8.8767e-05,1.125e-05,0.0,0 STARLINK-3582,1 51873U 22022X   24003.26618775  .00001125  00000-0  88767-4 0  9992,2 51873  53.2181 344.4201 0001532 107.9932 252.1227 15.08838355102882,6917.885,95.438,540.81,538.691,0.0
51873.0,STARLINK-3582,PAYLOAD,2024-01-04 03:03:21,15.08821336,0.0001462,53.2177,340.5564,89.8851,270.2309,-0.00014915,-2.66e-05,0.0,0 STARLINK-3582,1 51873U 22022X   24004.12733469 -.00002660  00000-0 -14915-3 0  9996,2 51873  53.2177 340.5564 0001462  89.8851 270.2309 15.08821336103015,6917.937,95.439,540.814,538.791,0.0
51873.0,STARLINK-3582,PAYLOAD,2024-01-04 07:49:29,15.08842295,0.0001475,53.2184,339.6583,95.6944,264.4216,3.1737e-05,2.17e-06,0.0,0 STARLINK-3582,1 51873U 22022X   24004.32603785  .00000217  00000-0  31737-4 0  9991,2 51873  53.2184 339.6583 0001475  95.6944 264.4216 15.08842295103047,6917.873,95.437,540.759,538.718,0.0
51873.0,STARLINK-3582,PAYLOAD,2024-01-04 22:07:56,15.08853449,0.0001604,53.2185,336.9804,114.8102,245.3057,0.00014105,1.958e-05,0.0,0 STARLINK-3582,1 51873U 22022X   24004.92218556  .00001958  00000-0  14105-3 0  9997,2 51873  53.2185 336.9804 0001604 114.8102 245.3057 15.08853449103132,6917.839,95.437,540.814,538.595,0.0
51873.0,STARLINK-3582,PAYLOAD,2024-01-05 04:29:28,15.08860994,0.0001509,53.2183,335.7905,104.2764,255.8396,0.0002321,3.41e-05,0.0,0 STARLINK-3582,1 51873U 22022X   24005.18714039  .00003410  00000-0  23210-3 0  9995,2 51873  53.2183 335.7905 0001509 104.2764 255.8396 15.08860994103179,6917.816,95.436,540.725,538.637,0.0
51873.0,STARLINK-3582,PAYLOAD,2024-01-05 07:40:15,15.0886327,0.0001675,53.2178,335.1958,113.2763,246.8405,0.00049402,7.588e-05,0.0,0 STARLINK-3582,1 51873U 22022X   24005.31962733  .00007588  00000-0  49402-3 0  9997,2 51873  53.2178 335.1958 0001675 113.2763 246.8405 15.08863270103191,6917.809,95.436,540.833,538.516,0.0
51873.0,STARLINK-3582,PAYLOAD,2024-01-06 02:44:53,15.08855935,0.0001761,53.2183,331.6192,111.9627,248.1552,0.00011328,1.516e-05,0.0,0 STARLINK-3582,1 51873U 22022X   24006.11450714  .00001516  00000-0  11328-3 0  9998,2 51873  53.2183 331.6192 0001761 111.9627 248.1552 15.08855935103319,6917.832,95.437,540.915,538.478,0.0
51873.0,STARLINK-3582,PAYLOAD,2024-01-06 21:49:31,15.0884861,0.000169,53.2189,328.0646,100.5956,259.5227,-9.3808e-05,-1.781e-05,0.0,0 STARLINK-3582,1 51873U 22022X   24006.90938837 -.00001781  00000-0 -93808-4 0  9992,2 51873  53.2189 328.0646 0001690 100.5956 259.5227 15.08848610103439,6917.854,95.437,540.888,538.55,0.0
51873.0,STARLINK-3582,PAYLOAD,2024-01-07 02:35:40,15.08850692,0.0002119,53.2186,327.1643,120.0409,240.0794,-5.161e-05,-1.11e-05,0.0,0 STARLINK-3582,1 51873U 22022X   24007.10810396 -.00001110  00000-0 -51610-4 0  9995,2 51873  53.2186 327.1643 0002119 120.0409 240.0794 15.08850692103460,6917.848,95.437,541.179,538.247,0.0
51873.0,STARLINK-3582,PAYLOAD,2024-01-07 21:40:18,15.08839753,0.0001743,53.2195,323.6072,88.2016,271.9175,5.191e-05,5.38e-06,0.0,0 STARLINK-3582,1 51873U 22022X   24007.90299073  .00000538  00000-0  51910-4 0  9990,2 51873  53.2195 323.6072 0001743  88.2016 271.9175 15.08839753103582,6917.881,95.438,540.952,538.54,0.0
51873.0,STARLINK-3582,PAYLOAD,2024-01-08 02:26:27,15.08841805,0.0001318,53.218,322.7115,79.9987,280.1153,1.1268e-05,-1.09e-06,0.0,0 STARLINK-3582,1 51873U 22022X   24008.10171224 -.00000109  00000-0  11268-4 0  9997,2 51873  53.2180 322.7115 0001318  79.9987 280.1153 15.08841805103619,6917.875,95.437,540.652,538.828,0.0
51873.0,STARLINK-3582,PAYLOAD,2024-01-09 03:52:38,15.08841289,0.0001368,53.218,317.9539,75.2678,284.8466,6.1827e-05,6.96e-06,0.0,0 STARLINK-3582,1 51873U 22022X   24009.16155332  .00000696  00000-0  61827-4 0  9992,2 51873  53.2180 317.9539 0001368  75.2678 284.8466 15.08841289103777,6917.876,95.437,540.688,538.795,0.0
51873.0,STARLINK-3582,PAYLOAD,2024-01-09 05:28:01,15.08844667,0.0001386,53.2181,317.6542,89.7305,270.3846,8.0635e-05,9.96e-06,0.0,0 STARLINK-3582,1 51873U 22022X   24009.22778987  .00000996  00000-0  80635-4 0  9997,2 51873  53.2181 317.6542 0001386  89.7305 270.3846 15.08844667103782,6917.866,95.437,540.69,538.772,0.0
51873.0,STARLINK-3582,PAYLOAD,2024-01-10 03:43:24,15.08847069,0.0001434,53.2181,313.4902,94.6764,265.4391,0.00019081,2.751e-05,0.0,0 STARLINK-3582,1 51873U 22022X   24010.15514660  .00002751  00000-0  19081-3 0  9994,2 51873  53.2181 313.4902 0001434  94.6764 265.4391 15.08847069103929,6917.859,95.437,540.716,538.732,0.0
51873.0,STARLINK-3582,PAYLOAD,2024-01-10 19:37:16,15.08841141,0.0001513,53.2186,310.5167,90.0107,270.1058,4.8429e-05,4.83e-06,0.0,0 STARLINK-3582,1 51873U 22022X   24010.81755632  .00000483  00000-0  48429-4 0  9992,2 51873  53.2186 310.5167 0001513  90.0107 270.1058 15.08841141104024,6917.877,95.437,540.789,538.695,0.0
51873.0,STARLINK-3582,PAYLOAD,2024-01-11 05:09:34,15.08850571,0.0001407,53.2179,308.7315,97.4153,262.6999,0.00018572,2.67e-05,0.0,0 STARLINK-3582,1 51873U 22022X   24011.21498750  .00002670  00000-0  18572-3 0  9997,2 51873  53.2179 308.7315 0001407  97.4153 262.6999 15.08850571104087,6917.848,95.437,540.686,538.74,0.0
51873.0,STARLINK-3582,PAYLOAD,2024-01-11 19:28:03,15.08839193,0.0001308,53.2183,306.0554,92.1128,268.0014,-8.2384e-05,-1.599e-05,0.0,0 STARLINK-3582,1 51873U 22022X   24011.81115424 -.00001599  00000-0 -82384-4 0  9991,2 51873  53.2183 306.0554 0001308  92.1128 268.0014 15.08839193104177,6917.883,95.438,540.653,538.843,0.0
51873.0,STARLINK-3582,PAYLOAD,2024-01-12 01:49:35,15.08846105,0.0001843,53.2181,304.8676,96.3694,263.7508,3.4989e-05,2.69e-06,0.0,0 STARLINK-3582,1 51873U 22022X   24012.07611088  .00000269  00000-0  34989-4 0  9996,2 51873  53.2181 304.8676 0001843  96.3694 263.7508 15.08846105104210,6917.862,95.437,541.002,538.452,0.0
51873.0,STARLINK-3582,PAYLOAD,2024-01-12 22:29:37,15.08838044,0.0001593,53.219,301.0073,61.3223,298.7929,2.9883e-07,-2.83e-06,0.0,0 STARLINK-3582,1 51873U 22022X   24012.93724027 -.00000283  00000-0  29883-6 0  9995,2 51873  53.2190 301.0073 0001593  61.3223 298.7929 15.08838044104344,6917.886,95.438,540.853,538.649,0.0
